GPS BIIA-23 (PRN 18)    
1 22877U 93068A   19148.41612696 -.00000063  00000-0  00000+0 0  9999
2 22877  54.6719  69.3635 0151629  79.6220 114.7577  2.00560725187478
GPS BIIR-2  (PRN 13)    
1 24876U 97035A   19148.04231004  .00000041  00000-0  00000+0 0  9992
2 24876  55.4597 199.2553 0033045  72.9312 287.5061  2.00564694160065
GPS BIIR-3  (PRN 11)    
1 25933U 99055A   19148.41117057 -.00000091  00000-0  00000+0 0  9999
2 25933  52.1127  46.6885 0164425 108.4949  84.5914  2.00559577143892
GPS BIIR-4  (PRN 20)    
1 26360U 00025A   19148.13065043  .00000055  00000-0  00000+0 0  9998
2 26360  53.3308 125.2744 0042588 137.6769 259.6391  2.00561326139577
GPS BIIR-5  (PRN 28)    
1 26407U 00040A   19147.85073970 -.00000046  00000-0  00000+0 0  9994
2 26407  56.2732 317.3873 0192342 275.9434 252.6750  2.00560650138242
GPS BIIR-6  (PRN 14)    
1 26605U 00071A   19148.37405578  .00000050  00000-0  00000+0 0  9993
2 26605  55.0342 196.6978 0108664 249.3645 209.0613  2.00559921135850
GPS BIIR-8  (PRN 16)    
1 27663U 03005A   19148.44373361 -.00000046  00000-0  00000+0 0  9996
2 27663  56.3335 317.1370 0106870  32.0753 325.6053  2.00575093119629
GPS BIIR-9  (PRN 21)    
1 27704U 03010A   19148.34756288 -.00000064  00000-0  00000+0 0  9990
2 27704  54.3469  68.8419 0248504 277.4216 334.6252  2.00556777118421
GPS BIIR-10 (PRN 22)    
1 28129U 03058A   19148.23490144  .00000060  00000-0  00000+0 0  9993
2 28129  53.1427 128.0585 0074525 282.7102  76.4506  2.00548924113119
GPS BIIR-11 (PRN 19)    
1 28190U 04009A   19148.14582407 -.00000085  00000-0  00000+0 0  9990
2 28190  56.2642  17.9268 0093802  80.5724 215.4640  2.00568604111295
GPS BIIR-12 (PRN 23)    
1 28361U 04023A   19148.03363177  .00000053  00000-0  00000+0 0  9999
2 28361  54.0487 191.0997 0134227 231.3409 257.6128  2.00574261109375
GPS BIIR-13 (PRN 02)    
1 28474U 04045A   19147.89833642 -.00000064  00000-0  00000+0 0  9993
2 28474  54.7046  68.6043 0191374 260.5146 131.5002  2.00558795106739
GPS BIIRM-1 (PRN 17)    
1 28874U 05038A   19147.46577248 -.00000087  00000-0  00000+0 0  9995
2 28874  56.3880  15.3034 0130567 262.1472 282.7592  2.00555753100124
GPS BIIRM-2 (PRN 31)    
1 29486U 06042A   19148.42500012 -.00000039  00000-0  00000+0 0  9990
2 29486  55.0066 253.8326 0091948 358.9018  81.7524  2.00570013 92867
GPS BIIRM-3 (PRN 12)    
1 29601U 06052A   19148.26061239 -.00000046  00000-0  00000+0 0  9993
2 29601  56.3138 316.0608 0074352  61.3427 299.4030  2.00568067 91779
GPS BIIRM-4 (PRN 15)    
1 32260U 07047A   19148.07337334  .00000059  00000-0  00000+0 0  9997
2 32260  53.1721 186.8054 0111549  43.5967 317.3523  2.00560951 85141
GPS BIIRM-5 (PRN 29)    
1 32384U 07062A   19148.35555583 -.00000082  00000-0  00000+0 0  9997
2 32384  56.4720  15.9070 0008630  99.2657 240.2554  2.00555428 83883
GPS BIIRM-6 (PRN 07)    
1 32711U 08012A   19147.97963441 -.00000040  00000-0  00000+0 0  9994
2 32711  54.7463 253.0452 0129017 219.6185 139.4520  2.00554638 82061
GPS BIIRM-8 (PRN 05)    
1 35752U 09043A   19148.28512098  .00000067  00000-0  00000+0 0  9998
2 35752  54.4249 130.7053 0055044  38.8503 206.6581  2.00560950 71650
GPS BIIF-1  (PRN 25)    
1 36585U 10022A   19147.80449549 -.00000047  00000-0  00000+0 0  9998
2 36585  55.5937 312.3933 0082618  50.4712 310.4607  2.00559792 65899
GPS BIIF-2  (PRN 01)    
1 37753U 11036A   19148.43024984 -.00000056  00000-0  00000+0 0  9994
2 37753  55.9024  72.5219 0087153  39.4364 140.7119  2.00566312 57595
GPS BIIF-3  (PRN 24)    
1 38833U 12053A   19148.16814567 -.00000037  00000-0  00000+0 0  9997
2 38833  53.7811 249.2585 0081779  33.4408 327.0960  2.00558344 48641
GPS BIIF-4  (PRN 27)    
1 39166U 13023A   19147.52894355 -.00000085  00000-0  00000+0 0  9990
2 39166  56.0707  12.0826 0070083  26.5383 333.8662  2.00567801 44172
GPS BIIF-5  (PRN 30)    
1 39533U 14008A   19147.52233927 -.00000043  00000-0  00000+0 0  9998
2 39533  53.9131 254.6778 0040991 193.3569 166.5515  2.00573470 38531
GPS BIIF-6  (PRN 06)    
1 39741U 14026A   19147.30993599 -.00000056  00000-0  00000+0 0  9997
2 39741  55.8815  72.0918 0017492 294.6257  65.1873  2.00573887 36811
GPS BIIF-7  (PRN 09)    
1 40105U 14045A   19148.39886646  .00000059  00000-0  00000+0 0  9990
2 40105  54.5753 191.3784 0009936 103.1668 257.0194  2.00563836 35285
GPS BIIF-8  (PRN 03)    
1 40294U 14068A   19148.26475664  .00000071  00000-0  00000+0 0  9998
2 40294  55.1769 132.2449 0020660  28.3689 331.7417  2.00550926 33505
GPS BIIF-9  (PRN 26)    
1 40534U 15013A   19147.90834758 -.00000050  00000-0  00000+0 0  9997
2 40534  54.5218 310.7521 0037014   6.4146 353.6268  2.00571040 30564
GPS BIIF-10  (PRN 08)   
1 40730U 15033A   19148.06826518 -.00000082  00000-0  00000+0 0  9995
2 40730  55.5957  11.4104 0044655 344.1763  15.7320  2.00555838 28324
GPS BIIF-11  (PRN 10)   
1 41019U 15062A   19148.11623477  .00000071  00000-0  00000+0 0  9990
2 41019  55.1781 132.0657 0046721 208.2751 151.4693  2.00564754 26148
GPS BIIF-12  (PRN 32)   
1 41328U 16007A   19148.21151015  .00000056  00000-0  00000+0 0  9991
2 41328  54.8192 191.7700 0032248 220.1348 139.7012  2.00573096 24206
